ELYSIUM STAR 2 & LFF    
1 43760U 18099C   24288.49561831  .00170992  00000+0  30290-2 0  9991
2 43760  97.4983 358.1861 0005739 215.9686 144.1179 15.49633626321531
